[{"OBJECT_NAME":"WSF-M","OBJECT_ID":"2024-070A","EPOCH":"2026-03-09T22:09:23.192640","MEAN_MOTION":14.20717963,"ECCENTRICITY":0.00037513,"INCLINATION":98.7203,"RA_OF_ASC_NODE":78.2024,"ARG_OF_PERICENTER":243.7691,"MEAN_ANOMALY":116.31,"EPHEMERIS_TYPE":0,"CLASSIFICATION_TYPE":"U","NORAD_CAT_ID":59481,"ELEMENT_SET_NO":999,"REV_AT_EPOCH":9900,"BSTAR":5.7491191e-5,"MEAN_MOTION_DOT":8.0e-7,"MEAN_MOTION_DDOT":0},{"OBJECT_NAME":"CZ-6A DEB","OBJECT_ID":"2024-140PC","EPOCH":"2026-03-09T15:57:11.521152","MEAN_MOTION":14.07958437,"ECCENTRICITY":0.01183168,"INCLINATION":89.0393,"RA_OF_ASC_NODE":290.1601,"ARG_OF_PERICENTER":212.629,"MEAN_ANOMALY":146.7545,"EPHEMERIS_TYPE":0,"CLASSIFICATION_TYPE":"U","NORAD_CAT_ID":61110,"ELEMENT_SET_NO":999,"REV_AT_EPOCH":7761,"BSTAR":0.00089842081,"MEAN_MOTION_DOT":1.639e-5,"MEAN_MOTION_DDOT":0}]
